ONEWEB-0045             
1 45151U 20008W   25082.02084776 -.00000388  00000+0 -11320-2 0  9996
2 45151  87.8806 110.9762 0002066  91.5842 268.5522 13.11415022252058
ONEWEB-0047             
1 45152U 20008X   25081.87630635  .00000716  00000+0  20140-2 0  9993
2 45152  87.8831 126.2426 0002039  99.0795 261.0563 13.10374579249097
ONEWEB-0048             
1 45153U 20008Y   25081.87133313  .00000605  00000+0  16953-2 0  9999
2 45153  87.8836 126.2651 0001994 100.1996 259.9356 13.10376440248701
ONEWEB-0049             
1 45154U 20008Z   25082.10236423  .00000666  00000+0  18742-2 0  9998
2 45154  87.8840 126.2093 0001847 113.1038 247.0284 13.10295975249730
ONEWEB-0051             
1 45155U 20008AA  25082.01915527 -.00000314  00000+0 -92050-3 0  9995
2 45155  87.8805 111.0197 0001846  92.6137 267.5202 13.11415096252739
ONEWEB-0052             
1 45156U 20008AB  25081.86885133 -.00004677  00000+0 -13433-1 0  9999
2 45156  87.8837 126.2045 0002338 109.0614 251.0767 13.10412139249593
ONEWEB-0053             
1 45157U 20008AC  25081.85139335 -.00000319  00000+0 -95119-3 0  9997
2 45157  87.8835 126.2685 0002356  96.6002 263.5394 13.10376540248806
ONEWEB-0054             
1 45158U 20008AD  25081.80991052  .00000457  00000+0  12716-2 0  9997
2 45158  87.8826 126.2532 0001910  97.9076 262.2268 13.10370500248916
